{
 "type": "FeatureCollection",
 "attribution": "Site boundary (c) OpenStreetMap contributors, ODbL",
 "features": [
  {
   "type": "Feature",
   "properties": {
    "name": "Fermi National Accelerator Laboratory site boundary",
    "source": "OpenStreetMap way 31974155 (retrieved 2026-07-30)"
   },
   "geometry": {
    "type": "Polygon",
    "coordinates": [
     [
      [
       -88.2155746,
       41.8208432
      ],
      [
       -88.214964,
       41.8215485
      ],
      [
       -88.2144215,
       41.8223559
      ],
      [
       -88.2140385,
       41.8232079
      ],
      [
       -88.2137198,
       41.8240627
      ],
      [
       -88.2136138,
       41.8246566
      ],
      [
       -88.2135502,
       41.8250501
      ],
      [
       -88.2106364,
       41.8643778
      ],
      [
       -88.2192646,
       41.8642599
      ],
      [
       -88.2191498,
       41.8674819
      ],
      [
       -88.2206263,
       41.8684195
      ],
      [
       -88.222983,
       41.8699066
      ],
      [
       -88.2238821,
       41.8698976
      ],
      [
       -88.2238883,
       41.870621
      ],
      [
       -88.224013,
       41.8706202
      ],
      [
       -88.229592,
       41.8705859
      ],
      [
       -88.2335524,
       41.8705615
      ],
      [
       -88.2440184,
       41.8655912
      ],
      [
       -88.2441275,
       41.8675344
      ],
      [
       -88.2552442,
       41.8636463
      ],
      [
       -88.2553439,
       41.8629589
      ],
      [
       -88.2597183,
       41.8629223
      ],
      [
       -88.2597218,
       41.8620719
      ],
      [
       -88.2665475,
       41.8597574
      ],
      [
       -88.2674038,
       41.8595488
      ],
      [
       -88.2682082,
       41.8594493
      ],
      [
       -88.268205,
       41.8591446
      ],
      [
       -88.2684056,
       41.8577291
      ],
      [
       -88.2724145,
       41.8568233
      ],
      [
       -88.2724406,
       41.8539997
      ],
      [
       -88.2724416,
       41.8538944
      ],
      [
       -88.2770487,
       41.8539129
      ],
      [
       -88.2785244,
       41.8537948
      ],
      [
       -88.2786423,
       41.8536888
      ],
      [
       -88.2787071,
       41.8474241
      ],
      [
       -88.2791899,
       41.8438195
      ],
      [
       -88.2793878,
       41.8406969
      ],
      [
       -88.2792449,
       41.8316397
      ],
      [
       -88.2792308,
       41.8303607
      ],
      [
       -88.279318,
       41.8290143
      ],
      [
       -88.2752626,
       41.8252395
      ],
      [
       -88.2653607,
       41.8153528
      ],
      [
       -88.2297729,
       41.8203128
      ],
      [
       -88.2240332,
       41.8206273
      ],
      [
       -88.2155746,
       41.8208432
      ]
     ]
    ]
   }
  },
  {
   "type": "Feature",
   "properties": {
    "name": "Collider ring (10 TeV, C=10.0 km, depth 100 m)",
    "ring": "collider"
   },
   "geometry": {
    "type": "LineString",
    "coordinates": [
     [
      -88.222972,
      41.84599
     ],
     [
      -88.222972,
      41.852293
     ],
     [
      -88.223008,
      41.853099
     ],
     [
      -88.223113,
      41.853901
     ],
     [
      -88.223289,
      41.854697
     ],
     [
      -88.223534,
      41.855482
     ],
     [
      -88.223847,
      41.856254
     ],
     [
      -88.224227,
      41.857009
     ],
     [
      -88.224672,
      41.857743
     ],
     [
      -88.22518,
      41.858454
     ],
     [
      -88.22575,
      41.859139
     ],
     [
      -88.226378,
      41.859795
     ],
     [
      -88.227062,
      41.860418
     ],
     [
      -88.227799,
      41.861006
     ],
     [
      -88.228586,
      41.861558
     ],
     [
      -88.22942,
      41.862069
     ],
     [
      -88.230297,
      41.862539
     ],
     [
      -88.231212,
      41.862965
     ],
     [
      -88.232164,
      41.863345
     ],
     [
      -88.233146,
      41.863678
     ],
     [
      -88.234155,
      41.863962
     ],
     [
      -88.235187,
      41.864196
     ],
     [
      -88.236238,
      41.864379
     ],
     [
      -88.237302,
      41.86451
     ],
     [
      -88.238375,
      41.864589
     ],
     [
      -88.239453,
      41.864616
     ],
     [
      -88.240531,
      41.864589
     ],
     [
      -88.241604,
      41.86451
     ],
     [
      -88.242668,
      41.864379
     ],
     [
      -88.243718,
      41.864196
     ],
     [
      -88.24475,
      41.863962
     ],
     [
      -88.24576,
      41.863678
     ],
     [
      -88.246742,
      41.863345
     ],
     [
      -88.247693,
      41.862965
     ],
     [
      -88.248609,
      41.862539
     ],
     [
      -88.249485,
      41.862069
     ],
     [
      -88.250319,
      41.861558
     ],
     [
      -88.251106,
      41.861006
     ],
     [
      -88.251843,
      41.860418
     ],
     [
      -88.252528,
      41.859795
     ],
     [
      -88.253156,
      41.859139
     ],
     [
      -88.253725,
      41.858454
     ],
     [
      -88.254234,
      41.857743
     ],
     [
      -88.254679,
      41.857009
     ],
     [
      -88.255059,
      41.856254
     ],
     [
      -88.255372,
      41.855482
     ],
     [
      -88.255617,
      41.854697
     ],
     [
      -88.255792,
      41.853901
     ],
     [
      -88.255898,
      41.853099
     ],
     [
      -88.255933,
      41.852293
     ],
     [
      -88.255933,
      41.84599
     ],
     [
      -88.255898,
      41.845184
     ],
     [
      -88.255792,
      41.844382
     ],
     [
      -88.255617,
      41.843586
     ],
     [
      -88.255372,
      41.842801
     ],
     [
      -88.255059,
      41.842029
     ],
     [
      -88.254679,
      41.841275
     ],
     [
      -88.254234,
      41.84054
     ],
     [
      -88.253725,
      41.839829
     ],
     [
      -88.253156,
      41.839144
     ],
     [
      -88.252528,
      41.838489
     ],
     [
      -88.251843,
      41.837865
     ],
     [
      -88.251106,
      41.837277
     ],
     [
      -88.250319,
      41.836725
     ],
     [
      -88.249485,
      41.836214
     ],
     [
      -88.248609,
      41.835744
     ],
     [
      -88.247693,
      41.835318
     ],
     [
      -88.246742,
      41.834938
     ],
     [
      -88.24576,
      41.834605
     ],
     [
      -88.24475,
      41.834321
     ],
     [
      -88.243718,
      41.834087
     ],
     [
      -88.242668,
      41.833904
     ],
     [
      -88.241604,
      41.833773
     ],
     [
      -88.240531,
      41.833694
     ],
     [
      -88.239453,
      41.833667
     ],
     [
      -88.238375,
      41.833694
     ],
     [
      -88.237302,
      41.833773
     ],
     [
      -88.236238,
      41.833904
     ],
     [
      -88.235187,
      41.834087
     ],
     [
      -88.234155,
      41.834321
     ],
     [
      -88.233146,
      41.834605
     ],
     [
      -88.232164,
      41.834938
     ],
     [
      -88.231212,
      41.835318
     ],
     [
      -88.230297,
      41.835744
     ],
     [
      -88.22942,
      41.836214
     ],
     [
      -88.228586,
      41.836725
     ],
     [
      -88.227799,
      41.837277
     ],
     [
      -88.227062,
      41.837865
     ],
     [
      -88.226378,
      41.838489
     ],
     [
      -88.22575,
      41.839144
     ],
     [
      -88.22518,
      41.839829
     ],
     [
      -88.224672,
      41.84054
     ],
     [
      -88.224227,
      41.841275
     ],
     [
      -88.223847,
      41.842029
     ],
     [
      -88.223534,
      41.842801
     ],
     [
      -88.223289,
      41.843586
     ],
     [
      -88.223113,
      41.844382
     ],
     [
      -88.223008,
      41.845184
     ],
     [
      -88.222972,
      41.84599
     ],
     [
      -88.222972,
      41.84599
     ]
    ]
   }
  },
  {
   "type": "Feature",
   "properties": {
    "name": "RCS3/RCS4 tunnel (C=14.72 km, depth 80 m)",
    "ring": "rcs34"
   },
   "geometry": {
    "type": "LineString",
    "coordinates": [
     [
      -88.222972,
      41.838698
     ],
     [
      -88.222972,
      41.842749
     ],
     [
      -88.223029,
      41.844045
     ],
     [
      -88.223199,
      41.845335
     ],
     [
      -88.223481,
      41.846613
     ],
     [
      -88.223875,
      41.847876
     ],
     [
      -88.224378,
      41.849116
     ],
     [
      -88.224989,
      41.850329
     ],
     [
      -88.225704,
      41.85151
     ],
     [
      -88.226521,
      41.852653
     ],
     [
      -88.227437,
      41.853754
     ],
     [
      -88.228446,
      41.854807
     ],
     [
      -88.229546,
      41.855809
     ],
     [
      -88.230731,
      41.856755
     ],
     [
      -88.231996,
      41.857641
     ],
     [
      -88.233336,
      41.858463
     ],
     [
      -88.234745,
      41.859218
     ],
     [
      -88.236217,
      41.859903
     ],
     [
      -88.237746,
      41.860514
     ],
     [
      -88.239325,
      41.861049
     ],
     [
      -88.240947,
      41.861505
     ],
     [
      -88.242606,
      41.861882
     ],
     [
      -88.244294,
      41.862176
     ],
     [
      -88.246004,
      41.862387
     ],
     [
      -88.247729,
      41.862514
     ],
     [
      -88.249462,
      41.862556
     ],
     [
      -88.251194,
      41.862514
     ],
     [
      -88.252919,
      41.862387
     ],
     [
      -88.25463,
      41.862176
     ],
     [
      -88.256318,
      41.861882
     ],
     [
      -88.257977,
      41.861505
     ],
     [
      -88.259599,
      41.861049
     ],
     [
      -88.261178,
      41.860514
     ],
     [
      -88.262707,
      41.859903
     ],
     [
      -88.264179,
      41.859218
     ],
     [
      -88.265588,
      41.858463
     ],
     [
      -88.266928,
      41.857641
     ],
     [
      -88.268193,
      41.856755
     ],
     [
      -88.269378,
      41.855809
     ],
     [
      -88.270477,
      41.854807
     ],
     [
      -88.271487,
      41.853754
     ],
     [
      -88.272402,
      41.852653
     ],
     [
      -88.27322,
      41.85151
     ],
     [
      -88.273935,
      41.850329
     ],
     [
      -88.274546,
      41.849116
     ],
     [
      -88.275049,
      41.847876
     ],
     [
      -88.275442,
      41.846613
     ],
     [
      -88.275725,
      41.845335
     ],
     [
      -88.275895,
      41.844045
     ],
     [
      -88.275951,
      41.842749
     ],
     [
      -88.275951,
      41.838698
     ],
     [
      -88.275895,
      41.837402
     ],
     [
      -88.275725,
      41.836112
     ],
     [
      -88.275442,
      41.834833
     ],
     [
      -88.275049,
      41.833571
     ],
     [
      -88.274546,
      41.832331
     ],
     [
      -88.273935,
      41.831118
     ],
     [
      -88.27322,
      41.829937
     ],
     [
      -88.272402,
      41.828794
     ],
     [
      -88.271487,
      41.827693
     ],
     [
      -88.270477,
      41.82664
     ],
     [
      -88.269378,
      41.825638
     ],
     [
      -88.268193,
      41.824692
     ],
     [
      -88.266928,
      41.823806
     ],
     [
      -88.265588,
      41.822984
     ],
     [
      -88.264179,
      41.822229
     ],
     [
      -88.262707,
      41.821544
     ],
     [
      -88.261178,
      41.820933
     ],
     [
      -88.259599,
      41.820398
     ],
     [
      -88.257977,
      41.819942
     ],
     [
      -88.256318,
      41.819565
     ],
     [
      -88.25463,
      41.819271
     ],
     [
      -88.252919,
      41.81906
     ],
     [
      -88.251194,
      41.818933
     ],
     [
      -88.249462,
      41.81889
     ],
     [
      -88.247729,
      41.818933
     ],
     [
      -88.246004,
      41.81906
     ],
     [
      -88.244294,
      41.819271
     ],
     [
      -88.242606,
      41.819565
     ],
     [
      -88.240947,
      41.819942
     ],
     [
      -88.239325,
      41.820398
     ],
     [
      -88.237746,
      41.820933
     ],
     [
      -88.236217,
      41.821544
     ],
     [
      -88.234745,
      41.822229
     ],
     [
      -88.233336,
      41.822984
     ],
     [
      -88.231996,
      41.823806
     ],
     [
      -88.230731,
      41.824692
     ],
     [
      -88.229546,
      41.825638
     ],
     [
      -88.228446,
      41.82664
     ],
     [
      -88.227437,
      41.827693
     ],
     [
      -88.226521,
      41.828794
     ],
     [
      -88.225704,
      41.829937
     ],
     [
      -88.224989,
      41.831118
     ],
     [
      -88.224378,
      41.832331
     ],
     [
      -88.223875,
      41.833571
     ],
     [
      -88.223481,
      41.834833
     ],
     [
      -88.223199,
      41.836112
     ],
     [
      -88.223029,
      41.837402
     ],
     [
      -88.222972,
      41.838698
     ],
     [
      -88.222972,
      41.838698
     ]
    ]
   }
  },
  {
   "type": "Feature",
   "properties": {
    "name": "RCS1/RCS2 tunnel (C=6.28 km, depth 60 m)",
    "ring": "rcs12"
   },
   "geometry": {
    "type": "LineString",
    "coordinates": [
     [
      -88.222972,
      41.846891
     ],
     [
      -88.222972,
      41.851392
     ],
     [
      -88.222994,
      41.851887
     ],
     [
      -88.223059,
      41.85238
     ],
     [
      -88.223167,
      41.852869
     ],
     [
      -88.223317,
      41.853352
     ],
     [
      -88.22351,
      41.853826
     ],
     [
      -88.223743,
      41.854289
     ],
     [
      -88.224016,
      41.854741
     ],
     [
      -88.224329,
      41.855177
     ],
     [
      -88.224678,
      41.855598
     ],
     [
      -88.225064,
      41.856001
     ],
     [
      -88.225485,
      41.856384
     ],
     [
      -88.225937,
      41.856745
     ],
     [
      -88.226421,
      41.857084
     ],
     [
      -88.226933,
      41.857398
     ],
     [
      -88.227472,
      41.857687
     ],
     [
      -88.228034,
      41.857948
     ],
     [
      -88.228618,
      41.858182
     ],
     [
      -88.229222,
      41.858386
     ],
     [
      -88.229842,
      41.858561
     ],
     [
      -88.230476,
      41.858705
     ],
     [
      -88.231121,
      41.858817
     ],
     [
      -88.231775,
      41.858898
     ],
     [
      -88.232434,
      41.858946
     ],
     [
      -88.233096,
      41.858962
     ],
     [
      -88.233758,
      41.858946
     ],
     [
      -88.234418,
      41.858898
     ],
     [
      -88.235071,
      41.858817
     ],
     [
      -88.235717,
      41.858705
     ],
     [
      -88.23635,
      41.858561
     ],
     [
      -88.236971,
      41.858386
     ],
     [
      -88.237574,
      41.858182
     ],
     [
      -88.238158,
      41.857948
     ],
     [
      -88.238721,
      41.857687
     ],
     [
      -88.239259,
      41.857398
     ],
     [
      -88.239771,
      41.857084
     ],
     [
      -88.240255,
      41.856745
     ],
     [
      -88.240708,
      41.856384
     ],
     [
      -88.241128,
      41.856001
     ],
     [
      -88.241514,
      41.855598
     ],
     [
      -88.241864,
      41.855177
     ],
     [
      -88.242176,
      41.854741
     ],
     [
      -88.24245,
      41.854289
     ],
     [
      -88.242683,
      41.853826
     ],
     [
      -88.242875,
      41.853352
     ],
     [
      -88.243026,
      41.852869
     ],
     [
      -88.243134,
      41.85238
     ],
     [
      -88.243199,
      41.851887
     ],
     [
      -88.24322,
      41.851392
     ],
     [
      -88.24322,
      41.846891
     ],
     [
      -88.243199,
      41.846396
     ],
     [
      -88.243134,
      41.845903
     ],
     [
      -88.243026,
      41.845414
     ],
     [
      -88.242875,
      41.844931
     ],
     [
      -88.242683,
      41.844457
     ],
     [
      -88.24245,
      41.843994
     ],
     [
      -88.242176,
      41.843543
     ],
     [
      -88.241864,
      41.843106
     ],
     [
      -88.241514,
      41.842685
     ],
     [
      -88.241128,
      41.842282
     ],
     [
      -88.240708,
      41.841899
     ],
     [
      -88.240255,
      41.841538
     ],
     [
      -88.239771,
      41.841199
     ],
     [
      -88.239259,
      41.840885
     ],
     [
      -88.238721,
      41.840596
     ],
     [
      -88.238158,
      41.840335
     ],
     [
      -88.237574,
      41.840101
     ],
     [
      -88.236971,
      41.839897
     ],
     [
      -88.23635,
      41.839722
     ],
     [
      -88.235717,
      41.839579
     ],
     [
      -88.235071,
      41.839466
     ],
     [
      -88.234418,
      41.839385
     ],
     [
      -88.233758,
      41.839337
     ],
     [
      -88.233096,
      41.839321
     ],
     [
      -88.232434,
      41.839337
     ],
     [
      -88.231775,
      41.839385
     ],
     [
      -88.231121,
      41.839466
     ],
     [
      -88.230476,
      41.839579
     ],
     [
      -88.229842,
      41.839722
     ],
     [
      -88.229222,
      41.839897
     ],
     [
      -88.228618,
      41.840101
     ],
     [
      -88.228034,
      41.840335
     ],
     [
      -88.227472,
      41.840596
     ],
     [
      -88.226933,
      41.840885
     ],
     [
      -88.226421,
      41.841199
     ],
     [
      -88.225937,
      41.841538
     ],
     [
      -88.225485,
      41.841899
     ],
     [
      -88.225064,
      41.842282
     ],
     [
      -88.224678,
      41.842685
     ],
     [
      -88.224329,
      41.843106
     ],
     [
      -88.224016,
      41.843543
     ],
     [
      -88.223743,
      41.843994
     ],
     [
      -88.22351,
      41.844457
     ],
     [
      -88.223317,
      41.844931
     ],
     [
      -88.223167,
      41.845414
     ],
     [
      -88.223059,
      41.845903
     ],
     [
      -88.222994,
      41.846396
     ],
     [
      -88.222972,
      41.846891
     ],
     [
      -88.222972,
      41.846891
     ]
    ]
   }
  },
  {
   "type": "Feature",
   "properties": {
    "name": "Interaction point (IP)",
    "depth_m": 100.0,
    "elev_grade_m": 224.1
   },
   "geometry": {
    "type": "Point",
    "coordinates": [
     -88.222972,
     41.849142
    ]
   }
  },
  {
   "type": "Feature",
   "properties": {
    "name": "Neutrino detector hall",
    "range_from_IP_km": 8.713,
    "hall_depth_m": 108.5,
    "on": "ComEd Aurora-Wayne ROW"
   },
   "geometry": {
    "type": "Point",
    "coordinates": [
     -88.222972,
     41.927583
    ]
   }
  },
  {
   "type": "Feature",
   "properties": {
    "name": "Neutrino corridor (IP -> detector)",
    "role": "physics beam"
   },
   "geometry": {
    "type": "LineString",
    "coordinates": [
     [
      -88.222972,
      41.849142
     ],
     [
      -88.222972,
      41.927583
     ]
    ]
   }
  },
  {
   "type": "Feature",
   "properties": {
    "name": "Plume exit (N, pitch 0 mrad down-N)",
    "exit_km": 37.8,
    "dose_mitigated_mSv_yr": 17.62
   },
   "geometry": {
    "type": "Point",
    "coordinates": [
     -88.222972,
     42.189532
    ]
   }
  },
  {
   "type": "Feature",
   "properties": {
    "name": "Plume exit (S, pitch 0 mrad down-N)",
    "exit_km": 28.3,
    "dose_mitigated_mSv_yr": 41.32
   },
   "geometry": {
    "type": "Point",
    "coordinates": [
     -88.222972,
     41.594367
    ]
   }
  },
  {
   "type": "Feature",
   "properties": {
    "name": "Plume exit (N, pitch 1 mrad down-N)",
    "exit_km": 43.7,
    "dose_mitigated_mSv_yr": 11.51
   },
   "geometry": {
    "type": "Point",
    "coordinates": [
     -88.222972,
     42.24236
    ]
   }
  },
  {
   "type": "Feature",
   "properties": {
    "name": "Plume exit (S, pitch 1 mrad down-N)",
    "exit_km": 24.0,
    "dose_mitigated_mSv_yr": 66.72
   },
   "geometry": {
    "type": "Point",
    "coordinates": [
     -88.222972,
     41.632829
    ]
   }
  },
  {
   "type": "Feature",
   "properties": {
    "name": "Plume exit (N, pitch 2 mrad down-N)",
    "exit_km": 51.0,
    "dose_mitigated_mSv_yr": 7.81
   },
   "geometry": {
    "type": "Point",
    "coordinates": [
     -88.222972,
     42.308288
    ]
   }
  },
  {
   "type": "Feature",
   "properties": {
    "name": "Plume exit (S, pitch 2 mrad down-N)",
    "exit_km": 20.9,
    "dose_mitigated_mSv_yr": 100.65
   },
   "geometry": {
    "type": "Point",
    "coordinates": [
     -88.222972,
     41.661257
    ]
   }
  },
  {
   "type": "Feature",
   "properties": {
    "name": "Plume exit (N, pitch 5 mrad down-N)",
    "exit_km": 81.3,
    "dose_mitigated_mSv_yr": 3.08
   },
   "geometry": {
    "type": "Point",
    "coordinates": [
     -88.222972,
     42.581049
    ]
   }
  },
  {
   "type": "Feature",
   "properties": {
    "name": "Plume exit (S, pitch 5 mrad down-N)",
    "exit_km": 14.6,
    "dose_mitigated_mSv_yr": 283.59
   },
   "geometry": {
    "type": "Point",
    "coordinates": [
     -88.222972,
     41.717743
    ]
   }
  }
 ]
}