{"type": "FeatureCollection", "attribution": "(c) OpenStreetMap contributors, ODbL 1.0; relation 12299045", "features": [{"type": "Feature", "properties": {"name": "University of Illinois Urbana-Champaign (campus & South Farms)", "source": "OSM relation 12299045 outer ring (retrieved 2026-08-06)"}, "geometry": {"type": "Polygon", "coordinates": [[[-88.238235, 40.069044], [-88.238156, 40.050808], [-88.237038, 40.050826], [-88.237031, 40.0499], [-88.238078, 40.049895], [-88.238067, 40.04873], [-88.237339, 40.048734], [-88.237338, 40.048138], [-88.238056, 40.048137], [-88.238089, 40.039793], [-88.223511, 40.039834], [-88.223594, 40.043416], [-88.228284, 40.043408], [-88.228305, 40.044455], [-88.228495, 40.054328], [-88.227231, 40.054357], [-88.227231, 40.053789], [-88.226344, 40.053793], [-88.22635, 40.05437], [-88.209378, 40.054446], [-88.209378, 40.053787], [-88.207993, 40.053826], [-88.207977, 40.054438], [-88.190258, 40.054723], [-88.190385, 40.069173], [-88.209307, 40.069055], [-88.209537, 40.087437], [-88.20971, 40.098158], [-88.209721, 40.098187], [-88.20975, 40.098216], [-88.209809, 40.098228], [-88.210228, 40.098219], [-88.210662, 40.098247], [-88.21544, 40.098188], [-88.217813, 40.098174], [-88.218877, 40.098078], [-88.219245, 40.098077], [-88.219253, 40.098369], [-88.219266, 40.098869], [-88.219276, 40.09919], [-88.219276, 40.099415], [-88.219271, 40.099571], [-88.219259, 40.09972], [-88.219236, 40.099916], [-88.21922, 40.10004], [-88.219212, 40.100138], [-88.219205, 40.100292], [-88.219202, 40.100409], [-88.219251, 40.103105], [-88.219256, 40.103338], [-88.219281, 40.104666], [-88.219296, 40.105484], [-88.219383, 40.105483], [-88.219806, 40.105479], [-88.219808, 40.105632], [-88.21982, 40.105931], [-88.219822, 40.106046], [-88.219488, 40.106048], [-88.219422, 40.106052], [-88.219389, 40.106056], [-88.219367, 40.106066], [-88.219341, 40.106087], [-88.21933, 40.106116], [-88.219328, 40.106145], [-88.219336, 40.10648], [-88.2202, 40.106476], [-88.2202, 40.106526], [-88.220294, 40.106526], [-88.220295, 40.10658], [-88.220504, 40.106578], [-88.220508, 40.106948], [-88.220508, 40.107069], [-88.21957, 40.107075], [-88.219439, 40.107075], [-88.219406, 40.107082], [-88.219384, 40.107093], [-88.219368, 40.10711], [-88.219354, 40.107127], [-88.219345, 40.107156], [-88.219374, 40.108165], [-88.219386, 40.108927], [-88.219391, 40.109228], [-88.219404, 40.110504], [-88.219505, 40.110502], [-88.220423, 40.110481], [-88.220456, 40.110481], [-88.220477, 40.11048], [-88.220601, 40.110478], [-88.220615, 40.11131], [-88.220634, 40.112058], [-88.220657, 40.112182], [-88.220695, 40.112284], [-88.220711, 40.112397], [-88.22072, 40.112466], [-88.220721, 40.112717], [-88.220736, 40.112738], [-88.22236, 40.11273], [-88.222371, 40.11323], [-88.222376, 40.113488], [-88.222396, 40.113512], [-88.222453, 40.113517], [-88.223377, 40.113507], [-88.223375, 40.113185], [-88.223591, 40.113183], [-88.223601, 40.113507], [-88.223876, 40.113506], [-88.223899, 40.113998], [-88.223194, 40.114008], [-88.223198, 40.114436], [-88.2232, 40.114539], [-88.222579, 40.114542], [-88.222446, 40.114542], [-88.222388, 40.114582], [-88.222403, 40.114967], [-88.222411, 40.115351], [-88.222416, 40.115493], [-88.222415, 40.115546], [-88.222417, 40.11578], [-88.222426, 40.115957], [-88.222427, 40.116129], [-88.222429, 40.116339], [-88.222761, 40.11634], [-88.223761, 40.116317], [-88.224293, 40.116282], [-88.228707, 40.116301], [-88.228743, 40.116299], [-88.22878, 40.116292], [-88.228821, 40.116274], [-88.22885, 40.116257], [-88.228877, 40.116224], [-88.228889, 40.116196], [-88.228893, 40.116177], [-88.228895, 40.116151], [-88.228883, 40.115395], [-88.228876, 40.114891], [-88.228873, 40.114656], [-88.228909, 40.114656], [-88.228907, 40.114412], [-88.228917, 40.114394], [-88.228908, 40.113762], [-88.228871, 40.113763], [-88.228883, 40.113673], [-88.228877, 40.113411], [-88.228869, 40.113198], [-88.228855, 40.11318], [-88.228851, 40.113172], [-88.228848, 40.113165], [-88.228846, 40.113157], [-88.228839, 40.112667], [-88.230192, 40.112671], [-88.230295, 40.112657], [-88.230354, 40.112621], [-88.230367, 40.112592], [-88.230304, 40.111198], [-88.230144, 40.111206], [-88.230143, 40.111112], [-88.230086, 40.111111], [-88.230078, 40.11102], [-88.230073, 40.11098], [-88.229776, 40.110991], [-88.229554, 40.111101], [-88.229501, 40.111126], [-88.229495, 40.111186], [-88.229318, 40.111193], [-88.229325, 40.111553], [-88.228853, 40.111558], [-88.228848, 40.111372], [-88.22882, 40.111346], [-88.228818, 40.111332], [-88.22879, 40.111333], [-88.228776, 40.111086], [-88.228779, 40.110664], [-88.228757, 40.109878], [-88.228802, 40.109877], [-88.228934, 40.109874], [-88.229032, 40.109871], [-88.229413, 40.109864], [-88.229637, 40.109859], [-88.229869, 40.109856], [-88.229862, 40.109492], [-88.230175, 40.109486], [-88.230172, 40.109325], [-88.230286, 40.109322], [-88.230281, 40.109156], [-88.23028, 40.109131], [-88.230279, 40.109082], [-88.230278, 40.109055], [-88.230275, 40.109003], [-88.230371, 40.109001], [-88.230448, 40.108998], [-88.23047, 40.108992], [-88.231072, 40.108992], [-88.2312, 40.108992], [-88.2312, 40.108916], [-88.231194, 40.108565], [-88.230465, 40.108574], [-88.230256, 40.108469], [-88.229486, 40.108477], [-88.229474, 40.108051], [-88.229021, 40.10806], [-88.228992, 40.10806], [-88.228746, 40.108063], [-88.228732, 40.107443], [-88.228712, 40.106786], [-88.2287, 40.105866], [-88.228704, 40.105517], [-88.228718, 40.105491], [-88.22874, 40.105465], [-88.228826, 40.10542], [-88.228989, 40.105411], [-88.230081, 40.105395], [-88.230486, 40.10539], [-88.231247, 40.105385], [-88.23125, 40.105477], [-88.231258, 40.105884], [-88.231811, 40.105876], [-88.231925, 40.105874], [-88.232026, 40.105872], [-88.23203, 40.106184], [-88.232718, 40.106176], [-88.232717, 40.106008], [-88.232788, 40.106006], [-88.232786, 40.105886], [-88.233396, 40.105882], [-88.233387, 40.105536], [-88.233386, 40.105283], [-88.233386, 40.105272], [-88.233367, 40.104277], [-88.233363, 40.104078], [-88.233599, 40.104077], [-88.23849, 40.104049], [-88.238793, 40.104051], [-88.239524, 40.104046], [-88.23952, 40.104139], [-88.239523, 40.104397], [-88.239535, 40.105348], [-88.240016, 40.105344], [-88.240484, 40.105336], [-88.24144, 40.105327], [-88.241557, 40.105312], [-88.241559, 40.105361], [-88.24168, 40.10539], [-88.241956, 40.10539], [-88.241995, 40.105424], [-88.241989, 40.105644], [-88.241986, 40.105773], [-88.242023, 40.105775], [-88.242032, 40.106161], [-88.242467, 40.106151], [-88.242695, 40.106139], [-88.243163, 40.102838], [-88.244508, 40.094582], [-88.243255, 40.094594], [-88.243249, 40.090933], [-88.243234, 40.090673], [-88.243187, 40.089865], [-88.243202, 40.088668], [-88.243201, 40.087088], [-88.245486, 40.087087], [-88.245653, 40.08525], [-88.245822, 40.08372], [-88.246039, 40.082588], [-88.246503, 40.080904], [-88.248116, 40.069726], [-88.248211, 40.069068], [-88.238235, 40.069044]]]}}, {"type": "Feature", "properties": {"name": "University of Illinois Willard Airport", "source": "OSM relation 12299045 outer ring"}, "geometry": {"type": "Polygon", "coordinates": [[[-88.290982, 40.050137], [-88.28894, 40.050861], [-88.288594, 40.050905], [-88.288043, 40.050614], [-88.287246, 40.050297], [-88.284934, 40.048432], [-88.284109, 40.04897], [-88.28357, 40.049008], [-88.282902, 40.048935], [-88.282354, 40.048648], [-88.281317, 40.047697], [-88.279066, 40.045968], [-88.276011, 40.043605], [-88.275803, 40.043465], [-88.275554, 40.043215], [-88.275296, 40.043001], [-88.274042, 40.043997], [-88.27353, 40.043782], [-88.27025, 40.046622], [-88.269611, 40.046754], [-88.268435, 40.047792], [-88.266993, 40.046765], [-88.26699, 40.046634], [-88.268731, 40.045101], [-88.268788, 40.044939], [-88.268732, 40.044028], [-88.268496, 40.043896], [-88.267079, 40.045012], [-88.266892, 40.045053], [-88.266757, 40.045058], [-88.266678, 40.045055], [-88.266677, 40.044716], [-88.266573, 40.044712], [-88.266516, 40.04333], [-88.266511, 40.042948], [-88.266467, 40.039784], [-88.266556, 40.03971], [-88.266562, 40.039501], [-88.266563, 40.039447], [-88.266564, 40.039413], [-88.259675, 40.039309], [-88.259271, 40.039298], [-88.259288, 40.03894], [-88.259872, 40.038931], [-88.260134, 40.037703], [-88.260341, 40.036595], [-88.260514, 40.035845], [-88.26062, 40.035699], [-88.260765, 40.035533], [-88.261845, 40.034521], [-88.263469, 40.033309], [-88.262549, 40.032615], [-88.262624, 40.032572], [-88.262713, 40.032507], [-88.262729, 40.032417], [-88.262689, 40.031522], [-88.262687, 40.031442], [-88.262681, 40.03008], [-88.262229, 40.029687], [-88.26218, 40.029629], [-88.258702, 40.026818], [-88.258699, 40.0267], [-88.25958, 40.026113], [-88.263125, 40.0289], [-88.263185, 40.028946], [-88.263383, 40.029098], [-88.263958, 40.028669], [-88.264069, 40.028666], [-88.264131, 40.028734], [-88.264162, 40.028824], [-88.265838, 40.030198], [-88.266192, 40.030185], [-88.266329, 40.030184], [-88.266673, 40.03016], [-88.266857, 40.030188], [-88.268056, 40.031125], [-88.268791, 40.030603], [-88.267611, 40.029668], [-88.267824, 40.029517], [-88.269023, 40.030445], [-88.26945, 40.030096], [-88.272467, 40.032442], [-88.272591, 40.032532], [-88.272751, 40.032677], [-88.274588, 40.03412], [-88.274862, 40.03423], [-88.275775, 40.034391], [-88.275919, 40.034291], [-88.276152, 40.034289], [-88.277163, 40.034918], [-88.279611, 40.032866], [-88.279755, 40.03267], [-88.279721, 40.032387], [-88.280524, 40.032396], [-88.280528, 40.031889], [-88.280779, 40.031838], [-88.28232, 40.030329], [-88.282503, 40.029762], [-88.282549, 40.029747], [-88.282702, 40.029753], [-88.282844, 40.02975], [-88.28294, 40.029795], [-88.284681, 40.031005], [-88.285766, 40.030041], [-88.286795, 40.029099], [-88.288554, 40.030301], [-88.288628, 40.030416], [-88.288269, 40.030793], [-88.283102, 40.035314], [-88.283144, 40.039627], [-88.283149, 40.039827], [-88.283246, 40.043344], [-88.283249, 40.043449], [-88.283279, 40.04429], [-88.289212, 40.0489], [-88.290982, 40.050137]]]}}]}