{
 "type": "FeatureCollection",
 "attribution": "Boundary geometry (c) OpenStreetMap contributors, ODbL 1.0; OSM way 31974155",
 "features": [
  {
   "type": "Feature",
   "properties": {
    "name": "Fermi National Accelerator Laboratory site boundary",
    "source": "OpenStreetMap way 31974155 (retrieved 2026-07-30)"
   },
   "geometry": {
    "type": "Polygon",
    "coordinates": [
     [
      [
       -88.2155746,
       41.8208432
      ],
      [
       -88.214964,
       41.8215485
      ],
      [
       -88.2144215,
       41.8223559
      ],
      [
       -88.2140385,
       41.8232079
      ],
      [
       -88.2137198,
       41.8240627
      ],
      [
       -88.2136138,
       41.8246566
      ],
      [
       -88.2135502,
       41.8250501
      ],
      [
       -88.2106364,
       41.8643778
      ],
      [
       -88.2192646,
       41.8642599
      ],
      [
       -88.2191498,
       41.8674819
      ],
      [
       -88.2206263,
       41.8684195
      ],
      [
       -88.222983,
       41.8699066
      ],
      [
       -88.2238821,
       41.8698976
      ],
      [
       -88.2238883,
       41.870621
      ],
      [
       -88.224013,
       41.8706202
      ],
      [
       -88.229592,
       41.8705859
      ],
      [
       -88.2335524,
       41.8705615
      ],
      [
       -88.2440184,
       41.8655912
      ],
      [
       -88.2441275,
       41.8675344
      ],
      [
       -88.2552442,
       41.8636463
      ],
      [
       -88.2553439,
       41.8629589
      ],
      [
       -88.2597183,
       41.8629223
      ],
      [
       -88.2597218,
       41.8620719
      ],
      [
       -88.2665475,
       41.8597574
      ],
      [
       -88.2674038,
       41.8595488
      ],
      [
       -88.2682082,
       41.8594493
      ],
      [
       -88.268205,
       41.8591446
      ],
      [
       -88.2684056,
       41.8577291
      ],
      [
       -88.2724145,
       41.8568233
      ],
      [
       -88.2724406,
       41.8539997
      ],
      [
       -88.2724416,
       41.8538944
      ],
      [
       -88.2770487,
       41.8539129
      ],
      [
       -88.2785244,
       41.8537948
      ],
      [
       -88.2786423,
       41.8536888
      ],
      [
       -88.2787071,
       41.8474241
      ],
      [
       -88.2791899,
       41.8438195
      ],
      [
       -88.2793878,
       41.8406969
      ],
      [
       -88.2792449,
       41.8316397
      ],
      [
       -88.2792308,
       41.8303607
      ],
      [
       -88.279318,
       41.8290143
      ],
      [
       -88.2752626,
       41.8252395
      ],
      [
       -88.2653607,
       41.8153528
      ],
      [
       -88.2297729,
       41.8203128
      ],
      [
       -88.2240332,
       41.8206273
      ],
      [
       -88.2155746,
       41.8208432
      ]
     ]
    ]
   }
  }
 ]
}